GPS BIIA-10 (PRN 32)    
1 20959U 90103A   09187.53147845 -.00000046  00000-0  10000-3 0  3179
2 20959  55.2009 282.2153 0133994 293.7726  64.8777  2.00549922136299
GPS BIIA-11 (PRN 24)    
1 21552U 91047A   09187.23905596  .00000063  00000-0  10000-3 0  3357
2 21552  54.4631 220.2307 0067658 321.4776  38.1203  2.00563033131877
GPS BIIA-12 (PRN 25)    
1 21890U 92009A   09188.73832422 -.00000065  00000-0  10000-3 0  3403
2 21890  55.5857  31.8981 0115236 290.7385  68.0850  2.00566729127283
GPS BIIA-14 (PRN 26)    
1 22014U 92039A   09188.42916275 -.00000099  00000-0  10000-3 0  2406
2 22014  56.8799 340.5278 0201733  58.2341 303.7094  2.00421240118048
GPS BIIA-15 (PRN 27)    
1 22108U 92058A   09187.43411212 -.00000065  00000-0  10000-3 0  1437
2 22108  55.8494  34.0429 0215159 269.6802  87.9105  2.00551859123201
GPS BIIA-21 (PRN 09)    
1 22700U 93042A   09187.46356785 -.00000064  00000-0  10000-3 0  5045
2 22700  55.9631  35.4281 0204282  85.4921 276.9039  2.00568673117363
GPS BIIA-23 (PRN 04)    
1 22877U 93068A   09187.60106165  .00000061  00000-0  10000-3 0  8105
2 22877  53.8788 217.6018 0085008  26.8056 333.7038  2.00552878115012
GPS BIIA-24 (PRN 06)    
1 23027U 94016A   09187.30594058  .00000011  00000-0  10000-3 0  8280
2 23027  53.5099 154.6715 0061863 283.5408  75.7308  2.00559886112311
GPS BIIA-25 (PRN 03)    
1 23833U 96019A   09187.82062320  .00000006  00000-0  10000-3 0   207
2 23833  53.0823 150.7589 0118462  51.5731 309.4386  2.00567361 97303
GPS BIIA-26 (PRN 10)    
1 23953U 96041A   09188.23965701 -.00000036  00000-0  10000-3 0  4743
2 23953  54.8758 278.6700 0084575  35.4978 325.1181  2.00569587 95104
GPS BIIA-27 (PRN 30)    
1 24320U 96056A   09187.59161780 -.00000043  00000-0  10000-3 0  2084
2 24320  54.5703  94.8739 0113574  81.6986 279.6153  2.00574689 93754
GPS BIIR-02 (PRN 13)    
1 24876U 97035A   09187.69165386 -.00000102  00000-0  10000-3 0  9897
2 24876  56.9970 340.6948 0039107  92.3002 268.1456  2.00562032 87620
GPS BIIA-28 (PRN 08)    
1 25030U 97067A   09187.32176281 -.00000059  00000-0  10000-3 0  8969
2 25030  56.6715  40.8708 0106389 172.7509 187.4746  2.00567639 85511
GPS BIIR-03 (PRN 11)    
1 25933U 99055A   09187.46134731  .00000057  00000-0  10000-3 0  4489
2 25933  50.9571 204.9785 0092875  39.4254 321.2965  2.00560969 71434
GPS BIIR-04 (PRN 20)    
1 26360U 00025A   09187.55985263 -.00000034  00000-0  10000-3 0  5428
2 26360  53.9414 275.8917 0036613  77.7169 282.7517  2.00574365 67131
GPS BIIR-05 (PRN 28)    
1 26407U 00040A   09187.90065525 -.00000037  00000-0  10000-3 0  4888
2 26407  55.4080  99.0749 0151401 244.8406 113.5945  2.00566556 65814
GPS BIIR-06 (PRN 14)    
1 26605U 00071A   09187.49843192 -.00000103  00000-0  10000-3 0  4929
2 26605  56.6264 339.5719 0047313 237.9026 121.6304  2.00570854 63405
GPS BIIR-07 (PRN 18)    
1 26690U 01004A   09187.37155823 -.00000042  00000-0  10000-3 0  3802
2 26690  53.9627 278.9853 0107313 222.9476 136.2631  2.00571410 61814
GPS BIIR-08 (PRN 16)    
1 27663U 03005A   09187.72071981 -.00000039  00000-0  10000-3 0  7469
2 27663  55.5104  98.6165 0054271 339.3698  20.4166  2.00575497 47178
GPS BIIR-09 (PRN 21)    
1 27704U 03010A   09187.28355191  .00000062  00000-0  10000-3 0  6408
2 27704  53.5071 218.3515 0155383 212.8001 146.2985  2.00570807 45954
GPS BIIR-10 (PRN 22)    
1 28129U 03058A   09187.41261809 -.00000042  00000-0  10000-3 0  2628
2 28129  53.8275 279.3012 0053183 252.4805 106.9912  2.00565086 40660
GPS BIIR-11 (PRN 19)    
1 28190U 04009A   09187.85893479  .00000023  00000-0  10000-3 0  2005
2 28190  54.8635 161.5394 0057655 338.7770  20.9463  2.00569828 38842
GPS BIIR-12 (PRN 23)    
1 28361U 04023A   09187.64493937 -.00000105  00000-0  10000-3 0   261
2 28361  55.5899 337.6637 0062227 168.6145 191.5234  2.00572574 36925
GPS BIIR-13 (PRN 02)    
1 28474U 04045A   09187.64111854  .00000061  00000-0  10000-3 0  9040
2 28474  53.9262 216.5487 0090650 164.7102 195.6335  2.00563592 34289
GPS BIIRM-1 (PRN 17)    
1 28874U 05038A   09188.99038388  .00000023  00000-0  10000-3 0  1664
2 28874  54.9959 158.2871 0046247 211.9313 147.7446  2.00560132 27738
GPS BIIRM-2 (PRN 31)    
1 29486U 06042A   09187.10795326 -.00000064  00000-0  10000-3 0  4809
2 29486  55.7774  37.2702 0072466 294.0389  65.2637  2.00556812 20399
GPS BIIRM-3 (PRN 12)    
1 29601U 06052A   09188.05266382 -.00000036  00000-0  10000-3 0  5001
2 29601  55.4215  97.6298 0034073 319.1293  40.6236  2.00568064 19325
GPS BIIRM-4 (PRN 15)    
1 32260U 07047A   09187.84985815 -.00000105  00000-0  00000+0 0  2689
2 32260  54.7919 336.4800 0015791 326.0478  33.8430  2.00568889 12715
GPS BIIRM-5 (PRN 29)    
1 32384U 07062A   09187.18359343  .00000019  00000-0  10000-3 0  2937
2 32384  55.0068 158.8319 0036410 282.9126  76.6493  2.00564815 11429
GPS BIIRM-6 (PRN 07)    
1 32711U 08012A   09187.77192161 -.00000063  00000-0  10000-3 0  1844
2 32711  55.4562  37.3473 0026695 169.7404 190.3748  2.00564743  9641
GPS BIIRM-7 (PRN 01)    
1 34661U 09014A   09187.09531412 -.00000048  00000-0  10000-3 0   745
2 34661  55.0739  96.9596 0033305  50.3880 309.9141  2.00555485  2141
